SCD 1                   
1 22490U 93009B   26162.56778659  .00000360  00000+0  47689-4 0  9994
2 22490  24.9685 242.2746 0042181  78.5920 305.7063 14.46117050760306
TECHSAT 1B (GO-32)      
1 25397U 98043D   26162.58543429  .00000048  00000+0  41012-4 0  9990
2 25397  99.0065 155.2028 0000734 176.4907 183.6276 14.24427354450534
SCD 2                   
1 25504U 98060A   26162.15226959  .00000361  00000+0  50104-4 0  9998
2 25504  24.9944 109.3743 0016932  60.0003 324.7192 14.45523442459456
DLR-TUBSAT              
1 25757U 99029B   26162.78221155  .00000075  00000+0  30384-4 0  9996
2 25757  98.6694 158.1085 0014393  11.5554 348.5968 14.52425491432468
TERRA                   
1 25994U 99068A   26162.82440921  .00000323  00000+0  74687-4 0  9991
2 25994  97.9458 212.5831 0001177 211.7689 270.0977 14.61098812408829
MAROC-TUBSAT            
1 27004U 01056D   26162.74659037 -.00000011  00000+0  40065-4 0  9994
2 27004  99.8079 339.5037 0020165 154.9043 274.8986 13.70262256225442
AQUA                    
1 27424U 02022A   26162.85780927  .00000644  00000+0  13781-3 0  9994
2 27424  98.4275 132.0342 0001316  53.1833  31.7763 14.62149994282496
SHIYAN-1 (SY-1)         
1 28220U 04012A   26162.76839485  .00012830  00000+0  39691-3 0  9992
2 28220  97.8694 240.4849 0006042  50.2171 309.9601 15.33623766210269
AURA                    
1 28376U 04026A   26162.85073731  .00000635  00000+0  13839-3 0  9999
2 28376  98.3416 119.2600 0001278  72.5772 287.5568 14.61320997165438
IRS-P5 (CARTOSAT-1)     
1 28649U 05017A   26162.64248275  .00001072  00000+0  11365-3 0  9995
2 28649  97.5308 185.9585 0002679  87.4782 272.6744 14.91034691142999
SINAH 1                 
1 28893U 05043D   26162.79203294  .00000254  00000+0  57768-4 0  9992
2 28893  98.2853 297.0825 0013216 295.3533  64.6300 14.64154068 99739
RESURS-DK 1             
1 29228U 06021A   26162.68096205  .00002244  00000+0  13218-3 0  9994
2 29228  69.9338 353.8061 0006682 296.0141  64.0336 15.13193083101743
ARIRANG-2 (KOMPSAT-2)   
1 29268U 06031A   26162.83984253  .00000432  00000+0  89525-4 0  9997
2 29268  97.8311 347.5459 0015960  90.0222  35.9312 14.64657308 60699
LAPAN-TUBSAT            
1 29709U 07001A   26162.86729788 -.00000003  00000+0  62767-5 0  9993
2 29709  98.1343 161.9711 0011490 197.2728 162.8098 14.85942688 50367
HAIYANG-1B              
1 31113U 07010A   26162.55118838  .00000078  00000+0  45317-4 0  9991
2 31113  98.3492 144.6150 0012676 213.8239 146.2137 14.31025505999824
COSMO-SKYMED 1          
1 31598U 07023A   26162.85482896  .00002084  00000+0  18599-3 0  9993
2 31598  97.8848 354.6667 0000997  89.1909 270.9426 14.97074174 28992
TERRASAR-X              
1 31698U 07026A   26160.28753291  .00000433  00000+0  23833-4 0  9996
2 31698  97.4448 168.1064 0001684  80.8129 279.3296 15.19149435 52027
WORLDVIEW-1 (WV-1)      
1 32060U 07041A   26162.64628874  .00005369  00000+0  22320-3 0  9999
2 32060  97.3865 282.4701 0002767  36.7309 323.4118 15.24205668 42035
YAOGAN-3                
1 32289U 07055A   26162.82482057  .00001670  00000+0  17568-3 0  9997
2 32289  97.8159 192.7552 0001825  86.8542 273.2885 14.90758273  5078
COSMO-SKYMED 2          
1 32376U 07059A   26162.82770792  .00000373  00000+0  53438-4 0  9990
2 32376  97.8885 346.5035 0001381  85.8733 274.2638 14.82150587  1218
RADARSAT-2              
1 32382U 07061A   26162.85996700 -.00000133  00000+0 -34650-4 0  9993
2 32382  98.5781 169.8684 0001316  83.6322 276.5010 14.29983107965190
CARTOSAT-2A             
1 32783U 08021A   26162.83794758  .00000956  00000+0  13533-3 0  9999
2 32783  97.7641 211.7290 0012949 124.5064 235.7373 14.79231612978019
HUANJING 1A (HJ-1A)     
1 33320U 08041A   26162.90695027  .00000706  00000+0  90731-4 0  9995
2 33320  97.6679 148.9489 0019524 151.4244 208.8045 14.83972463957625
HUANJING 1B (HJ-1B)     
1 33321U 08041B   26162.87362998  .00001206  00000+0  15207-3 0  9990
2 33321  97.6516 152.1051 0035567 198.5438 161.4483 14.83309766957620
GEOEYE 1                
1 33331U 08042A   26162.68686538  .00000382  00000+0  80616-4 0  9991
2 33331  98.1236 236.6877 0005539  82.6962 277.4870 14.64720710949344
THEOS                   
1 33396U 08049A   26162.89604179 -.00000237  00000+0 -91242-4 0  9991
2 33396  98.5577 220.3513 0001268  79.7828 280.3491 14.20131626917214
COSMO-SKYMED 3          
1 33412U 08054A   26162.89745709  .00003548  00000+0  24143-3 0  9992
2 33412  97.8287  21.3813 0014420 286.6427  73.3216 15.06915933956149
YAOGAN-4                
1 33446U 08061A   26162.70258333  .00000844  00000+0  10973-3 0  9991
2 33446  97.9309  96.2535 0015781  88.6296 271.6725 14.83189729944852
GOSAT (IBUKI)           
1 33492U 09002A   26162.54742248  .00000995  00000+0  18396-3 0  9997
2 33492  98.0885 273.6993 0001611  87.9943 272.1446 14.67539921930633
DEIMOS-1                
1 35681U 09041A   26162.82802889  .00000781  00000+0  12253-3 0  9990
2 35681  97.7397 320.2885 0001286 137.2289 222.9021 14.75233556906097
